[
    {
        "Altitude(m)": 706782.1470819343,
        "Argument of Periapsis(deg)": 0.010251109067964361,
        "Eccentricity": 0.0,
        "Inclination(deg)": 45.0,
        "Latitude(deg)": -15.729488498273447,
        "Longitude(deg)": -36.961254055707705,
        "Mean Anomaly(deg)": -22.347405017267246,
        "RAAN(deg)": 79.99032325268762,
        "Satellite Name": "Constellation 1 372",
        "Satellite Number": 372,
        "Semi-Major Axis(m)": 7083131.272910544,
        "Time(s)": 171
    },
    {
        "Altitude(m)": 706770.1137249873,
        "Argument of Periapsis(deg)": 0.010311057074209765,
        "Eccentricity": 0.0,
        "Inclination(deg)": 45.0,
        "Latitude(deg)": -15.688059671227984,
        "Longitude(deg)": -36.91917377197022,
        "Mean Anomaly(deg)": -22.286703877017334,
        "RAAN(deg)": 79.99026666352205,
        "Satellite Name": "Constellation 1 372",
        "Satellite Number": 372,
        "Semi-Major Axis(m)": 7083131.272910544,
        "Time(s)": 172
    },
    {
        "Altitude(m)": 706758.0927215746,
        "Argument of Periapsis(deg)": 0.010371005080455171,
        "Eccentricity": 0.0,
        "Inclination(deg)": 45.0,
        "Latitude(deg)": -15.6466208459374,
        "Longitude(deg)": -36.87711201323868,
        "Mean Anomaly(deg)": -22.226002736767473,
        "RAAN(deg)": 79.99021007435647,
        "Satellite Name": "Constellation 1 372",
        "Satellite Number": 372,
        "Semi-Major Axis(m)": 7083131.272910544,
        "Time(s)": 173
    },
    {
        "Altitude(m)": 706746.0841084652,
        "Argument of Periapsis(deg)": 0.010430953086700577,
        "Eccentricity": 0.0,
        "Inclination(deg)": 45.0,
        "Latitude(deg)": -15.605172053611023,
        "Longitude(deg)": -36.835068724837434,
        "Mean Anomaly(deg)": -22.165301596517562,
        "RAAN(deg)": 79.9901534851909,
        "Satellite Name": "Constellation 1 372",
        "Satellite Number": 372,
        "Semi-Major Axis(m)": 7083131.272910544,
        "Time(s)": 174
    },
    {
        "Altitude(m)": 706734.0879223768,
        "Argument of Periapsis(deg)": 0.010490901092945983,
        "Eccentricity": 0.0,
        "Inclination(deg)": 45.0,
        "Latitude(deg)": -15.56371332542266,
        "Longitude(deg)": -36.79304385212098,
        "Mean Anomaly(deg)": -22.104600456267715,
        "RAAN(deg)": 79.99009689602535,
        "Satellite Name": "Constellation 1 372",
        "Satellite Number": 372,
        "Semi-Major Axis(m)": 7083131.272910544,
        "Time(s)": 175
    },
    {
        "Altitude(m)": 706722.1041999432,
        "Argument of Periapsis(deg)": 0.010550849099191389,
        "Eccentricity": 0.0,
        "Inclination(deg)": 45.0,
        "Latitude(deg)": -15.522244692510316,
        "Longitude(deg)": -36.75103734047362,
        "Mean Anomaly(deg)": -22.04389931601775,
        "RAAN(deg)": 79.99004030685977,
        "Satellite Name": "Constellation 1 372",
        "Satellite Number": 372,
        "Semi-Major Axis(m)": 7083131.272910544,
        "Time(s)": 176
    },
    {
        "Altitude(m)": 706710.132977749,
        "Argument of Periapsis(deg)": 0.010610797105436795,
        "Eccentricity": 0.0,
        "Inclination(deg)": 45.0,
        "Latitude(deg)": -15.480766185976748,
        "Longitude(deg)": -36.70904913530981,
        "Mean Anomaly(deg)": -21.98319817576784,
        "RAAN(deg)": 79.9899837176942,
        "Satellite Name": "Constellation 1 372",
        "Satellite Number": 372,
        "Semi-Major Axis(m)": 7083131.272910544,
        "Time(s)": 177
    },
    {
        "Altitude(m)": 706698.1742923104,
        "Argument of Periapsis(deg)": 0.0106707451116822,
        "Eccentricity": 0.0,
        "Inclination(deg)": 45.0,
        "Latitude(deg)": -15.43927783688947,
        "Longitude(deg)": -36.66707935017089,
        "Mean Anomaly(deg)": -21.922497035517967,
        "RAAN(deg)": 79.98992712852862,
        "Satellite Name": "Constellation 1 372",
        "Satellite Number": 372,
        "Semi-Major Axis(m)": 7083131.272910544,
        "Time(s)": 178
    },
    {
        "Altitude(m)": 706686.2281800838,
        "Argument of Periapsis(deg)": 0.010730693117927606,
        "Eccentricity": 0.0,
        "Inclination(deg)": 45.0,
        "Latitude(deg)": -15.397779676279999,
        "Longitude(deg)": -36.62512759433675,
        "Mean Anomaly(deg)": -21.861795895268116,
        "RAAN(deg)": 79.98987053936305,
        "Satellite Name": "Constellation 1 372",
        "Satellite Number": 372,
        "Semi-Major Axis(m)": 7083131.272910544,
        "Time(s)": 179
    },
    {
        "Altitude(m)": 706674.2946774552,
        "Argument of Periapsis(deg)": 0.01079064112417301,
        "Eccentricity": 0.0,
        "Inclination(deg)": 45.0,
        "Latitude(deg)": -15.356271735145354,
        "Longitude(deg)": -36.58319398140849,
        "Mean Anomaly(deg)": -21.801094755018156,
        "RAAN(deg)": 79.98981395019749,
        "Satellite Name": "Constellation 1 372",
        "Satellite Number": 372,
        "Semi-Major Axis(m)": 7083131.272910544,
        "Time(s)": 180
    },
    {
        "Altitude(m)": 706662.3738207557,
        "Argument of Periapsis(deg)": 0.010850589130418416,
        "Eccentricity": 0.0,
        "Inclination(deg)": 45.0,
        "Latitude(deg)": -15.31475404444745,
        "Longitude(deg)": -36.54127845692003,
        "Mean Anomaly(deg)": -21.74039361476824,
        "RAAN(deg)": 79.9897573610319,
        "Satellite Name": "Constellation 1 372",
        "Satellite Number": 372,
        "Semi-Major Axis(m)": 7083131.272910544,
        "Time(s)": 181
    },
    {
        "Altitude(m)": 706650.4656462456,
        "Argument of Periapsis(deg)": 0.01091053713666382,
        "Eccentricity": 0.0,
        "Inclination(deg)": 45.0,
        "Latitude(deg)": -15.273226635113227,
        "Longitude(deg)": -36.499380966435155,
        "Mean Anomaly(deg)": -21.679692474518433,
        "RAAN(deg)": 79.98970077186635,
        "Satellite Name": "Constellation 1 372",
        "Satellite Number": 372,
        "Semi-Major Axis(m)": 7083131.272910544,
        "Time(s)": 182
    },
    {
        "Altitude(m)": 706638.5701901168,
        "Argument of Periapsis(deg)": 0.010970485142909228,
        "Eccentricity": 0.0,
        "Inclination(deg)": 45.0,
        "Latitude(deg)": -15.231689538034589,
        "Longitude(deg)": -36.45750145554717,
        "Mean Anomaly(deg)": -21.618991334268483,
        "RAAN(deg)": 79.98964418270079,
        "Satellite Name": "Constellation 1 372",
        "Satellite Number": 372,
        "Semi-Major Axis(m)": 7083131.272910544,
        "Time(s)": 183
    },
    {
        "Altitude(m)": 706626.6874885142,
        "Argument of Periapsis(deg)": 0.011030433149154634,
        "Eccentricity": 0.0,
        "Inclination(deg)": 45.0,
        "Latitude(deg)": -15.190142784069007,
        "Longitude(deg)": -36.41563986987951,
        "Mean Anomaly(deg)": -21.558290194018568,
        "RAAN(deg)": 79.9895875935352,
        "Satellite Name": "Constellation 1 372",
        "Satellite Number": 372,
        "Semi-Major Axis(m)": 7083131.272910544,
        "Time(s)": 184
    },
    {
        "Altitude(m)": 706614.8175774983,
        "Argument of Periapsis(deg)": 0.01109038115540004,
        "Eccentricity": 0.0,
        "Inclination(deg)": 45.0,
        "Latitude(deg)": -15.148586404039463,
        "Longitude(deg)": -36.37379632318232,
        "Mean Anomaly(deg)": -21.49758905376866,
        "RAAN(deg)": 79.98953100436964,
        "Satellite Name": "Constellation 1 372",
        "Satellite Number": 372,
        "Semi-Major Axis(m)": 7083131.272910544,
        "Time(s)": 185
    },
    {
        "Altitude(m)": 706602.9604930786,
        "Argument of Periapsis(deg)": 0.011150329161645444,
        "Eccentricity": 0.0,
        "Inclination(deg)": 45.0,
        "Latitude(deg)": -15.107020428733785,
        "Longitude(deg)": -36.33197042494417,
        "Mean Anomaly(deg)": -21.436887913518795,
        "RAAN(deg)": 79.98947441520407,
        "Satellite Name": "Constellation 1 372",
        "Satellite Number": 372,
        "Semi-Major Axis(m)": 7083131.272910544,
        "Time(s)": 186
    },
    {
        "Altitude(m)": 706591.1162711954,
        "Argument of Periapsis(deg)": 0.01121027716789085,
        "Eccentricity": 0.0,
        "Inclination(deg)": 45.0,
        "Latitude(deg)": -15.06544488890604,
        "Longitude(deg)": -36.290162288974585,
        "Mean Anomaly(deg)": -21.376186773268884,
        "RAAN(deg)": 79.9894178260385,
        "Satellite Name": "Constellation 1 372",
        "Satellite Number": 372,
        "Semi-Major Axis(m)": 7083131.272910544,
        "Time(s)": 187
    },
    {
        "Altitude(m)": 706579.2849477188,
        "Argument of Periapsis(deg)": 0.011270225174136258,
        "Eccentricity": 0.0,
        "Inclination(deg)": 45.0,
        "Latitude(deg)": -15.023859815275856,
        "Longitude(deg)": -36.2483718610157,
        "Mean Anomaly(deg)": -21.315485633018973,
        "RAAN(deg)": 79.98936123687294,
        "Satellite Name": "Constellation 1 372",
        "Satellite Number": 372,
        "Semi-Major Axis(m)": 7083131.272910544,
        "Time(s)": 188
    },
    {
        "Altitude(m)": 706567.4665584654,
        "Argument of Periapsis(deg)": 0.011330173180381662,
        "Eccentricity": 0.0,
        "Inclination(deg)": 45.0,
        "Latitude(deg)": -14.98226523852869,
        "Longitude(deg)": -36.20659908683944,
        "Mean Anomaly(deg)": -21.254784492769062,
        "RAAN(deg)": 79.98930464770737,
        "Satellite Name": "Constellation 1 372",
        "Satellite Number": 372,
        "Semi-Major Axis(m)": 7083131.272910544,
        "Time(s)": 189
    }
]